GLOBALSTAR M075         
1 37192U 10054E   25258.34392584 -.00000074  00000+0  16360-3 0  9992
2 37192  51.9931 267.0316 0000308  93.1059 280.5351 12.62267720687230
GLOBALSTAR M073         
1 37193U 10054F   25258.53701956 -.00000107  00000+0 -17707-4 0  9996
2 37193  52.0056 180.3302 0000612  81.4771  89.7499 12.62262490689246
GLOBALSTAR M083         
1 37739U 11033A   25258.39182591 -.00000101  00000+0  18111-4 0  9995
2 37739  51.9847 129.3801 0000892  78.4134  92.7889 12.62275689658241
GLOBALSTAR M088         
1 37740U 11033B   25258.58321905 -.00000108  00000+0 -24957-4 0  9995
2 37740  52.0232  34.5560 0000731  89.5621 351.4466 12.62267799653815
GLOBALSTAR M091         
1 37741U 11033C   25258.60122986 -.00000100  00000+0  23040-4 0  9990
2 37741  52.0028 357.8727 0000809  90.8709  13.4728 12.62270062654604
GLOBALSTAR M085         
1 37742U 11033D   25258.40960791 -.00000088  00000+0  87667-4 0  9993
2 37742  52.0136 309.5121 0000630  92.0015 280.5532 12.62264653655096
GLOBALSTAR M081         
1 37743U 11033E   25258.43757139 -.00000082  00000+0  12177-3 0  9994
2 37743  51.9971 312.1770 0000623 112.5934 266.2417 12.62268146655243
GLOBALSTAR M089         
1 37744U 11033F   25258.31748718 -.00000073  00000+0  17047-3 0  9996
2 37744  51.9915 266.7515 0000161 143.4562 230.2783 12.62266694656075
